[
    {
        "CCSDS_OMM_VERS": "3.0",
        "COMMENT": "GENERATED VIA SPACE-TRACK.ORG API",
        "CREATION_DATE": "2025-03-01T17:52:32",
        "ORIGINATOR": "18 SPCS",
        "OBJECT_NAME": "COSMOS 2459 (GLONASS)",
        "OBJECT_ID": "2010-007A",
        "CENTER_NAME": "EARTH",
        "REF_FRAME": "TEME",
        "TIME_SYSTEM": "UTC",
        "MEAN_ELEMENT_THEORY": "SGP4",
        "EPOCH": "2025-03-01T05:30:30.450240",
        "MEAN_MOTION": "2.13116598",
        "ECCENTRICITY": "0.00269670",
        "INCLINATION": "65.6974",
        "RA_OF_ASC_NODE": "330.5325",
        "ARG_OF_PERICENTER": "345.3902",
        "MEAN_ANOMALY": "178.9258",
        "EPHEMERIS_TYPE": "0",
        "CLASSIFICATION_TYPE": "U",
        "NORAD_CAT_ID": "36400",
        "ELEMENT_SET_NO": "999",
        "REV_AT_EPOCH": "11674",
        "BSTAR": "0.00000000000000",
        "MEAN_MOTION_DOT": "-0.00000044",
        "MEAN_MOTION_DDOT": "0.0000000000000",
        "SEMIMAJOR_AXIS": "25506.860",
        "PERIOD": "675.686",
        "APOAPSIS": "19197.509",
        "PERIAPSIS": "19059.940",
        "OBJECT_TYPE": "PAYLOAD",
        "RCS_SIZE": "LARGE",
        "COUNTRY_CODE": "CIS",
        "LAUNCH_DATE": "2010-03-01",
        "SITE": "TTMTR",
        "DECAY_DATE": null,
        "FILE": "4656182",
        "GP_ID": "281999501",
        "TLE_LINE0": "0 COSMOS 2459 (GLONASS)",
        "TLE_LINE1": "1 36400U 10007A   25060.22951910 -.00000044  00000-0  00000-0 0  9992",
        "TLE_LINE2": "2 36400  65.6974 330.5325 0026967 345.3902 178.9258  2.13116598116744"
    }
]